[{"OBJECT_NAME":"STARLINK-31318","OBJECT_ID":"2024-020K","EPOCH":"2026-03-09T20:49:09.692256","MEAN_MOTION":15.3019392,"ECCENTRICITY":6.3e-5,"INCLINATION":53.1595,"RA_OF_ASC_NODE":321.9176,"ARG_OF_PERICENTER":104.3902,"MEAN_ANOMALY":255.7169,"EPHEMERIS_TYPE":0,"CLASSIFICATION_TYPE":"U","NORAD_CAT_ID":58885,"ELEMENT_SET_NO":999,"REV_AT_EPOCH":11809,"BSTAR":-2.6829e-5,"MEAN_MOTION_DOT":-1.153e-5,"MEAN_MOTION_DDOT":0},{"OBJECT_NAME":"COSMOS 2251 DEB","OBJECT_ID":"1993-036ACD","EPOCH":"2026-03-09T07:40:43.610016","MEAN_MOTION":15.34387517,"ECCENTRICITY":0.00153475,"INCLINATION":74.0247,"RA_OF_ASC_NODE":157.5248,"ARG_OF_PERICENTER":323.6748,"MEAN_ANOMALY":36.3413,"EPHEMERIS_TYPE":0,"CLASSIFICATION_TYPE":"U","NORAD_CAT_ID":34859,"ELEMENT_SET_NO":999,"REV_AT_EPOCH":89676,"BSTAR":0.0069097076,"MEAN_MOTION_DOT":0.00238319,"MEAN_MOTION_DDOT":0}]
